{"id":"799","name":"Uranus ","centerId":"10","centerName":"Sun ","epoch":"2000-Jan-01 12:00:00.0000","physicalData":{"id":"799","name":"Uranus ","table":{"meanRadius":25362000,"mass":8.6813e+25,"siderealRotRate":-0.000101237,"gravParameter":5793951256,"obliquity":97.77}},"elementTable":{"eccentricity":0.04439245542666346,"periapsis":2749082756940.631,"inclination":0.7726589302345578,"longitudeOfAscendingNode":74.00247590855591,"argumentOfPeriapsis":96.59158989666786,"timeOfPeriapsis":2439319.7039593444,"meanMotion":1.352774984094379e-7,"meanAnomaly":142.8889650360195,"trueAnomaly":145.8267121145811,"semiMajorAxis":2876790553352.1636,"apoapsis":3004498349763.6973,"siderealOrbitPeriod":2661196460.8512},"vectorTable":{"position":[2158975038179.71,-2054625247626.7249,-35625463778.38492],"velocity":[4637.273797531963,4627.599147267434,-42.91789035828519],"range":2980591769655.4297,"rangeRate":169.5318711866351}}
